ELEKTRO-L 3             
1 44903U 19095A   26185.87885684 -.00000084  00000+0  00000+0 0  9991
2 44903   0.3002  81.9987 0001650   9.5282 223.7366  1.00272340 23886
TJS-5                   
1 44978U 20002A   26184.03163965 -.00000331  00000+0  00000+0 0  9996
2 44978   0.0331  57.8327 0008052 355.6711 346.4409  1.00270746 23862
GSAT-30                 
1 45026U 20005A   26185.80897983 -.00000152  00000+0  00000+0 0  9995
2 45026   0.0216  91.3521 0003509 358.7549 206.9684  1.00271030 23685
EUTELSAT KONNECT        
1 45027U 20005B   26183.79791435  .00000060  00000+0  00000+0 0  9994
2 45027   0.0684  93.9829 0002510 123.5154 357.8052  1.00272464 24492
JCSAT-17                
1 45245U 20013A   26185.89073025 -.00000304  00000+0  00000+0 0  9998
2 45245   5.3916 357.0224 0003143 119.3796 263.1766  1.00271548 23415
GEO-KOMPSAT-2B          
1 45246U 20013B   26185.88925691  .00000000  00000+0  00000+0 0  9995
2 45246   0.0143 236.8174 0000721 357.1104 137.3664  1.00269308 23456
BEIDOU-3 G2             
1 45344U 20017A   26185.95095378 -.00000129  00000+0  00000+0 0  9999
2 45344   2.8979  47.5916 0002547  48.4345 249.3610  1.00271222 23439
AEHF-6 (USA 298)        
1 45465U 20022B   26185.96248051 -.00000284  00000+0  00000+0 0  9990
2 45465   2.5108 301.3371 0041924  15.9897  89.8285  1.00276085 23193
BEIDOU-3 G3             
1 45807U 20040A   26185.96746223 -.00000342  00000+0  00000+0 0  9999
2 45807   2.4884  67.4760 0002341 334.4617 339.8779  1.00270285 22241
APSTAR-6D               
1 45863U 20045A   26185.18586492 -.00000305  00000+0  00000+0 0  9999
2 45863   0.0453  91.4256 0002209 352.4150  39.3098  1.00275826 22030
KOREASAT 116            
1 45920U 20048A   26184.68398285 -.00000350  00000+0  00000+0 0  9991
2 45920   0.0197 305.9891 0001434 194.9070 143.2485  1.00269433 21802
EXPRESS 103             
1 45985U 20053A   26185.31253458 -.00000269  00000+0  00000+0 0  9990
2 45985   0.0317 267.9937 0001047 200.3821  22.9688  1.00275008 21826
EXPRESS 80              
1 45986U 20053B   26184.99445539  .00000000  00000+0  00000+0 0  9999
2 45986   0.0194  16.2584 0001703 197.5445 146.1862  1.00270817 21805
BSAT-4B                 
1 46112U 20056A   26183.88258012 -.00000339  00000+0  00000+0 0  9995
2 46112   0.0484 144.9934 0004346 337.2365 226.2430  1.00271626 21548
MEV-2                   
1 46113U 20056B   26185.93484535  .00000002  00000+0  00000+0 0  9991
2 46113   0.0398 258.9526 0000440 290.2142  69.3115  1.00271274 80874
GALAXY 30 (G-30)        
1 46114U 20056C   26185.76756301  .00000000  00000+0  00000+0 0  9994
2 46114   0.0222  38.3019 0001984  69.3110 326.4938  1.00271730 21469
GAOFEN-13 01            
1 46610U 20071A   26185.95849382 -.00000350  00000+0  00000+0 0  9994
2 46610   0.4410  86.3490 0044893 119.8759 180.0837  1.00271944 21093
TIANTONG-1 2            
1 46916U 20082A   26185.95988050 -.00000342  00000+0  00000+0 0  9992
2 46916   0.7694 330.0308 0001680 125.8767 297.5707  1.00272742 20837
LUCAS (JDRS-1)          
1 47202U 20089A   26185.38275089 -.00000222  00000+0  00000+0 0  9993
2 47202   0.0543 266.4769 0002227 175.2592  69.2052  1.00268645 20595
SXM-7                   
1 47240U 20096A   26183.77948934 -.00000194  00000+0  00000+0 0  9998
2 47240   0.0229  95.5343 0003859  22.1236 358.6155  1.00271656  7606
CMS-01                  
1 47256U 20099A   26185.80897983 -.00000152  00000+0  00000+0 0  9995
2 47256   0.0489  92.9014 0003204 178.2821  25.8574  1.00270857 20373
TURKSAT 5A              
1 47306U 21001A   26183.85730899  .00000165  00000+0  00000+0 0  9993
2 47306   0.0164  62.7497 0000225  57.9743 139.7319  1.00272199 20121
TIANTONG-1 3            
1 47321U 21003A   26186.01624767 -.00000142  00000+0  00000+0 0  9995
2 47321   1.7428 340.3853 0003459 127.7112 262.3206  1.00272701 20147
TJS-6                   
1 47613U 21010A   26185.82787325  .00000055  00000+0  00000+0 0  9997
2 47613   0.2075 262.6018 0003298 228.3504 268.3834  1.00270877 19981
SBIRS GEO-5 (USA 315)   
1 48618U 21042A   26185.95364046 -.00000255  00000+0  00000+0 0  9996
2 48618   5.0818 329.2443 0001777 142.7784 248.0614  1.00271697 18954
FENGYUN 4B              
1 48808U 21047A   26185.95589381 -.00000317  00000+0  00000+0 0  9992
2 48808   0.1941  79.2842 0005728 276.7769  15.7282  1.00268507 18747
SXM-8                   
1 48838U 21049A   26183.77948934 -.00000194  00000+0  00000+0 0  9991
2 48838   0.0152  24.7917 0005460  10.3626  81.1216  1.00270228 18745
TIANLIAN 1-05           
1 49011U 21063A   26185.99479369  .00000121  00000+0  00000+0 0  9997
2 49011   1.6368  80.5612 0000801  51.0489 166.3689  1.00272309 18258
STAR ONE D2             
1 49055U 21069A   26183.56872634  .00000000  00000+0  00000+0 0  9990
2 49055   0.0160  19.6099 0002717 116.3391 279.3053  1.00277704 18092
EUTELSAT QUANTUM        
1 49056U 21069B   26185.96647050  .00000139  00000+0  00000+0 0  9992
2 49056   0.0128  33.9181 0002515  71.3364 213.3475  1.00273432 18106
ZHONGXING-2E            
1 49062U 21071A   26185.91570509 -.00000279  00000+0  00000+0 0  9997
2 49062   0.0422 114.1050 0001883  31.2943 205.2470  1.00272805 18212
