OBJECT_NAME,OBJECT_ID,EPOCH,MEAN_MOTION,ECCENTRICITY,INCLINATION,RA_OF_ASC_NODE,ARG_OF_PERICENTER,MEAN_ANOMALY,EPHEMERIS_TYPE,CLASSIFICATION_TYPE,NORAD_CAT_ID,ELEMENT_SET_NO,REV_AT_EPOCH,BSTAR,MEAN_MOTION_DOT,MEAN_MOTION_DDOT
ELEKTRO-L 3,2019-095A,2026-07-04T21:05:33.230976,1.00272340,.00016506,0.3002,81.9987,9.5282,223.7366,0,U,44903,999,2388,0,-.84E-6,0
TJS-5,2020-002A,2026-07-03T00:45:33.665760,1.00270746,.0008052,0.0331,57.8327,355.6711,346.4409,0,U,44978,999,2386,0,-.331E-5,0
GSAT-30,2020-005A,2026-07-04T19:24:55.857312,1.00271030,.00035092,0.0216,91.3521,358.7549,206.9684,0,U,45026,999,2368,0,-.152E-5,0
EUTELSAT KONNECT,2020-005B,2026-07-02T19:08:59.799840,1.00272464,.00025106,0.0684,93.9829,123.5154,357.8052,0,U,45027,999,2449,0,.6E-6,0
JCSAT-17,2020-013A,2026-07-04T21:22:39.093600,1.00271548,.00031437,5.3916,357.0224,119.3796,263.1766,0,U,45245,999,2341,0,-.304E-5,0
GEO-KOMPSAT-2B,2020-013B,2026-07-04T21:20:31.797024,1.00269308,.00007213,0.0143,236.8174,357.1104,137.3664,0,U,45246,999,2345,0,0,0
BEIDOU-3 G2,2020-017A,2026-07-04T22:49:22.406592,1.00271222,.00025473,2.8979,47.5916,48.4345,249.3610,0,U,45344,999,2343,0,-.129E-5,0
AEHF-6 (USA 298),2020-022B,2026-07-04T23:05:58.316064,1.00276085,.00419246,2.5108,301.3371,15.9897,89.8285,0,U,45465,999,2319,0,-.284E-5,0
BEIDOU-3 G3,2020-040A,2026-07-04T23:13:08.736672,1.00270285,.00023419,2.4884,67.4760,334.4617,339.8779,0,U,45807,999,2224,0,-.342E-5,0
APSTAR-6D,2020-045A,2026-07-04T04:27:38.729088,1.00275826,.00022098,0.0453,91.4256,352.4150,39.3098,0,U,45863,999,2203,0,-.305E-5,0
KOREASAT 116,2020-048A,2026-07-03T16:24:56.118240,1.00269433,.0001435,0.0197,305.9891,194.9070,143.2485,0,U,45920,999,2180,0,-.35E-5,0
EXPRESS 103,2020-053A,2026-07-04T07:30:02.987712,1.00275008,.00010473,0.0317,267.9937,200.3821,22.9688,0,U,45985,999,2182,0,-.269E-5,0
EXPRESS 80,2020-053B,2026-07-03T23:52:00.945696,1.00270817,.00017033,0.0194,16.2584,197.5445,146.1862,0,U,45986,999,2180,0,0,0
BSAT-4B,2020-056A,2026-07-02T21:10:54.922368,1.00271626,.00043461,0.0484,144.9934,337.2365,226.2430,0,U,46112,999,2154,0,-.339E-5,0
MEV-2,2020-056B,2026-07-04T22:26:10.638240,1.00271274,.00004409,0.0398,258.9526,290.2142,69.3115,0,U,46113,999,8087,0,.2E-7,0
GALAXY 30 (G-30),2020-056C,2026-07-04T18:25:17.444064,1.00271730,.0001984,0.0222,38.3019,69.3110,326.4938,0,U,46114,999,2146,0,0,0
GAOFEN-13 01,2020-071A,2026-07-04T23:00:13.866048,1.00271944,.00448933,0.4410,86.3490,119.8759,180.0837,0,U,46610,999,2109,0,-.35E-5,0
TIANTONG-1 2,2020-082A,2026-07-04T23:02:13.675200,1.00272742,.00016809,0.7694,330.0308,125.8767,297.5707,0,U,46916,999,2083,0,-.342E-5,0
LUCAS (JDRS-1),2020-089A,2026-07-04T09:11:09.676896,1.00268645,.00022278,0.0543,266.4769,175.2592,69.2052,0,U,47202,999,2059,0,-.222E-5,0
SXM-7,2020-096A,2026-07-02T18:42:27.878976,1.00271656,.00038591,0.0229,95.5343,22.1236,358.6155,0,U,47240,999,760,0,-.194E-5,0
CMS-01,2020-099A,2026-07-04T19:24:55.857312,1.00270857,.0003204,0.0489,92.9014,178.2821,25.8574,0,U,47256,999,2037,0,-.152E-5,0
TURKSAT 5A,2021-001A,2026-07-02T20:34:31.496736,1.00272199,.00002251,0.0164,62.7497,57.9743,139.7319,0,U,47306,999,2012,0,.165E-5,0
TIANTONG-1 3,2021-003A,2026-07-05T00:23:23.798688,1.00272701,.00034597,1.7428,340.3853,127.7112,262.3206,0,U,47321,999,2014,0,-.142E-5,0
TJS-6,2021-010A,2026-07-04T19:52:08.248800,1.00270877,.00032989,0.2075,262.6018,228.3504,268.3834,0,U,47613,999,1998,0,.55E-6,0
SBIRS GEO-5 (USA 315),2021-042A,2026-07-04T22:53:14.535744,1.00271697,.0001777,5.0818,329.2443,142.7784,248.0614,0,U,48618,999,1895,0,-.255E-5,0
FENGYUN 4B,2021-047A,2026-07-04T22:56:29.225184,1.00268507,.00057281,0.1941,79.2842,276.7769,15.7282,0,U,48808,999,1874,0,-.317E-5,0
SXM-8,2021-049A,2026-07-02T18:42:27.878976,1.00270228,.00054608,0.0152,24.7917,10.3626,81.1216,0,U,48838,999,1874,0,-.194E-5,0
TIANLIAN 1-05,2021-063A,2026-07-04T23:52:30.174816,1.00272309,.00008016,1.6368,80.5612,51.0489,166.3689,0,U,49011,999,1825,0,.121E-5,0
STAR ONE D2,2021-069A,2026-07-02T13:38:57.955776,1.00277704,.00027172,0.0160,19.6099,116.3391,279.3053,0,U,49055,999,1809,0,0,0
EUTELSAT QUANTUM,2021-069B,2026-07-04T23:11:43.051200,1.00273432,.00025155,0.0128,33.9181,71.3364,213.3475,0,U,49056,999,1810,0,.139E-5,0
ZHONGXING-2E,2021-071A,2026-07-04T21:58:36.919776,1.00272805,.00018837,0.0422,114.1050,31.2943,205.2470,0,U,49062,999,1821,0,-.279E-5,0
